[{"OBJECT_NAME":"SRMSAT","OBJECT_ID":"2011-058D","EPOCH":"2026-03-09T21:52:00.886368","MEAN_MOTION":14.11547804,"ECCENTRICITY":0.00117783,"INCLINATION":19.9724,"RA_OF_ASC_NODE":300.3652,"ARG_OF_PERICENTER":191.4566,"MEAN_ANOMALY":283.6478,"EPHEMERIS_TYPE":0,"CLASSIFICATION_TYPE":"U","NORAD_CAT_ID":37841,"ELEMENT_SET_NO":999,"REV_AT_EPOCH":74377,"BSTAR":0.00012150267,"MEAN_MOTION_DOT":4.89e-6,"MEAN_MOTION_DDOT":0},{"OBJECT_NAME":"COSMOS 1275 DEB","OBJECT_ID":"1981-053ER","EPOCH":"2026-03-09T16:48:15.759360","MEAN_MOTION":14.0181909,"ECCENTRICITY":0.00700179,"INCLINATION":82.9422,"RA_OF_ASC_NODE":165.7784,"ARG_OF_PERICENTER":233.1178,"MEAN_ANOMALY":255.8029,"EPHEMERIS_TYPE":0,"CLASSIFICATION_TYPE":"U","NORAD_CAT_ID":13019,"ELEMENT_SET_NO":999,"REV_AT_EPOCH":23245,"BSTAR":0.0013065955,"MEAN_MOTION_DOT":2.043e-5,"MEAN_MOTION_DDOT":0}]
